[{"OBJECT_NAME":"OBJECT V","OBJECT_ID":"2025-155V","EPOCH":"2026-03-09T20:35:20.067360","MEAN_MOTION":15.27583301,"ECCENTRICITY":0.00080353,"INCLINATION":97.4485,"RA_OF_ASC_NODE":37.249,"ARG_OF_PERICENTER":152.8264,"MEAN_ANOMALY":207.3397,"EPHEMERIS_TYPE":0,"CLASSIFICATION_TYPE":"U","NORAD_CAT_ID":64895,"ELEMENT_SET_NO":999,"REV_AT_EPOCH":6557,"BSTAR":0.00051002361,"MEAN_MOTION_DOT":0.00013705,"MEAN_MOTION_DDOT":0},{"OBJECT_NAME":"STARLINK-35986","OBJECT_ID":"2025-281F","EPOCH":"2026-03-09T03:21:20.691648","MEAN_MOTION":15.27597385,"ECCENTRICITY":0.0001048,"INCLINATION":43.0001,"RA_OF_ASC_NODE":346.3912,"ARG_OF_PERICENTER":278.0103,"MEAN_ANOMALY":82.0629,"EPHEMERIS_TYPE":0,"CLASSIFICATION_TYPE":"U","NORAD_CAT_ID":66853,"ELEMENT_SET_NO":999,"REV_AT_EPOCH":1610,"BSTAR":0.00095032814,"MEAN_MOTION_DOT":0.00025995,"MEAN_MOTION_DDOT":0}]
